start=new Date('2021-09-22T00:00:00.000Z').valueOf();
sats=[{"ECCENTRICITY":"0.00010990","LAUNCH_DATE":"2021-03-11","CENTER_NAME":"EARTH","SITE":"AFETR","MEAN_ELEMENT_THEORY":"SGP4","PERIOD":"95.593","OBJECT_NAME":"STARLINK-2257","INCLINATION":"53.0577","ELEMENT_SET_NO":"999","EPHEMERIS_TYPE":"0","OBJECT_TYPE":"PAYLOAD","MEAN_MOTION":"15.06388254","GP_ID":"185188867","FILE":"3122258","ARG_OF_PERICENTER":"87.7166","REF_FRAME":"TEME","EPOCH":"2021-09-21T18:09:07.876224","MEAN_MOTION_DDOT":"0.0000000000000","MEAN_MOTION_DOT":"-0.00000719","CLASSIFICATION_TYPE":"U","NORAD_CAT_ID":"47787","MEAN_ANOMALY":"272.3949","PERIAPSIS":"546.488","SEMIMAJOR_AXIS":"6925.385","TIME_SYSTEM":"UTC","DECAY_DATE":null,"TLE_LINE1":"1 47787U 21018A   21264.75634116 -.00000719  00000-0 -29397-4 0  9996","RCS_SIZE":"LARGE","APOAPSIS":"548.011","REV_AT_EPOCH":"3092","BSTAR":"-0.00002939700000","TLE_LINE2":"2 47787  53.0577   8.6751 0001099  87.7166 272.3949 15.06388254 30925","OBJECT_ID":"2021-018A","RA_OF_ASC_NODE":"8.6751","COUNTRY_CODE":"US"},{"OBJECT_TYPE":"PAYLOAD","EPHEMERIS_TYPE":"0","ELEMENT_SET_NO":"999","INCLINATION":"53.0565","OBJECT_NAME":"STARLINK-2314","REF_FRAME":"TEME","EPOCH":"2021-09-21T14:36:47.374560","MEAN_MOTION_DOT":"0.00003452","MEAN_MOTION_DDOT":"0.0000000000000","ARG_OF_PERICENTER":"59.5308","FILE":"3122258","MEAN_MOTION":"15.27706944","GP_ID":"185188620","CENTER_NAME":"EARTH","LAUNCH_DATE":"2021-03-11","ECCENTRICITY":"0.00015590","PERIOD":"94.259","SITE":"AFETR","MEAN_ELEMENT_THEORY":"SGP4","REV_AT_EPOCH":"3123","APOAPSIS":"483.741","RCS_SIZE":"LARGE","RA_OF_ASC_NODE":"346.6421","COUNTRY_CODE":"US","OBJECT_ID":"2021-018B","TLE_LINE2":"2 47788  53.0565 346.6421 0001559  59.5308 300.5844 15.27706944 31234","BSTAR":"0.00013851000000","PERIAPSIS":"481.601","SEMIMAJOR_AXIS":"6860.806","TIME_SYSTEM":"UTC","MEAN_ANOMALY":"300.5844","CLASSIFICATION_TYPE":"U","NORAD_CAT_ID":"47788","TLE_LINE1":"1 47788U 21018B   21264.60888165  .00003452  00000-0  13851-3 0  9998","DECAY_DATE":null},{"COUNTRY_CODE":"US","RA_OF_ASC_NODE":"349.2780","BSTAR":"0.00001552500000","TLE_LINE2":"2 47789  53.0585 349.2780 0000819 114.9788 245.1286 15.06394434 31193","OBJECT_ID":"2021-018C","REV_AT_EPOCH":"3119","RCS_SIZE":"LARGE","APOAPSIS":"547.798","TLE_LINE1":"1 47789U 21018C   21264.61810699 -.00000050  00000-0  15525-4 0  9990","DECAY_DATE":null,"TIME_SYSTEM":"UTC","SEMIMAJOR_AXIS":"6925.366","PERIAPSIS":"546.663","NORAD_CAT_ID":"47789","CLASSIFICATION_TYPE":"U","MEAN_ANOMALY":"245.1286","ARG_OF_PERICENTER":"114.9788","MEAN_MOTION_DOT":"-0.00000050","MEAN_MOTION_DDOT":"0.0000000000000","REF_FRAME":"TEME","EPOCH":"2021-09-21T14:50:04.443936","GP_ID":"185189869","MEAN_MOTION":"15.06394434","FILE":"3122258","EPHEMERIS_TYPE":"0","OBJECT_TYPE":"PAYLOAD","OBJECT_NAME":"STARLINK-2315","INCLINATION":"53.0585","ELEMENT_SET_NO":"999","PERIOD":"95.592","MEAN_ELEMENT_THEORY":"SGP4","SITE":"AFETR","CENTER_NAME":"EARTH","ECCENTRICITY":"0.00008190","LAUNCH_DATE":"2021-03-11"},{"GP_ID":"185189622","MEAN_MOTION":"15.30648687","FILE":"3122258","ARG_OF_PERICENTER":"48.7685","MEAN_MOTION_DOT":"0.00009247","MEAN_MOTION_DDOT":"0.0000000000000","REF_FRAME":"TEME","EPOCH":"2021-09-21T16:49:22.469664","OBJECT_NAME":"STARLINK-2319","ELEMENT_SET_NO":"999","INCLINATION":"53.0557","EPHEMERIS_TYPE":"0","OBJECT_TYPE":"PAYLOAD","SITE":"AFETR","MEAN_ELEMENT_THEORY":"SGP4","PERIOD":"94.078","ECCENTRICITY":"0.00014910","LAUNCH_DATE":"2021-03-11","CENTER_NAME":"EARTH","BSTAR":"0.00031951000000","TLE_LINE2":"2 47790  53.0557 343.6667 0001491  48.7685 311.3443 15.30648687 31283","OBJECT_ID":"2021-018D","COUNTRY_CODE":"US","RA_OF_ASC_NODE":"343.6667","RCS_SIZE":"LARGE","APOAPSIS":"474.899","REV_AT_EPOCH":"3128","DECAY_DATE":null,"TLE_LINE1":"1 47790U 21018D   21264.70095451  .00009247  00000-0  31951-3 0  9999","NORAD_CAT_ID":"47790","CLASSIFICATION_TYPE":"U","MEAN_ANOMALY":"311.3443","TIME_SYSTEM":"UTC","SEMIMAJOR_AXIS":"6852.013","PERIAPSIS":"472.856"},{"OBJECT_TYPE":"PAYLOAD","EPHEMERIS_TYPE":"0","ELEMENT_SET_NO":"999","INCLINATION":"53.0606","OBJECT_NAME":"STARLINK-2322","REF_FRAME":"TEME","EPOCH":"2021-09-21T19:28:44.749056","MEAN_MOTION_DDOT":"0.0000000000000","MEAN_MOTION_DOT":"-0.00000692","ARG_OF_PERICENTER":"101.7427","FILE":"3122258","MEAN_MOTION":"15.06391566","GP_ID":"185188370","CENTER_NAME":"EARTH","LAUNCH_DATE":"2021-03-11","ECCENTRICITY":"0.00018740","PERIOD":"95.593","SITE":"AFETR","MEAN_ELEMENT_THEORY":"SGP4","REV_AT_EPOCH":"3094","APOAPSIS":"548.537","RCS_SIZE":"LARGE","RA_OF_ASC_NODE":"8.4123","COUNTRY_CODE":"US","OBJECT_ID":"2021-018E","TLE_LINE2":"2 47791  53.0606   8.4123 0001874 101.7427 258.3772 15.06391566 30942","BSTAR":"-0.00002752600000","PERIAPSIS":"545.942","SEMIMAJOR_AXIS":"6925.374","TIME_SYSTEM":"UTC","MEAN_ANOMALY":"258.3772","CLASSIFICATION_TYPE":"U","NORAD_CAT_ID":"47791","TLE_LINE1":"1 47791U 21018E   21264.81162904 -.00000692  00000-0 -27526-4 0  9991","DECAY_DATE":null},{"DECAY_DATE":null,"TLE_LINE1":"1 47792U 21018F   21264.62549330 -.00000917  00000-0 -42722-4 0  9998","MEAN_ANOMALY":"241.5425","NORAD_CAT_ID":"47792","CLASSIFICATION_TYPE":"U","SEMIMAJOR_AXIS":"6925.391","TIME_SYSTEM":"UTC","PERIAPSIS":"546.569","OBJECT_ID":"2021-018F","TLE_LINE2":"2 47792  53.0576 349.2551 0000992 118.5664 241.5425 15.06386276 31198","BSTAR":"-0.00004272200000","COUNTRY_CODE":"US","RA_OF_ASC_NODE":"349.2551","APOAPSIS":"547.943","RCS_SIZE":"LARGE","REV_AT_EPOCH":"3119","MEAN_ELEMENT_THEORY":"SGP4","SITE":"AFETR","PERIOD":"95.593","LAUNCH_DATE":"2021-03-11","ECCENTRICITY":"0.00009920","CENTER_NAME":"EARTH","FILE":"3122258","GP_ID":"185189118","MEAN_MOTION":"15.06386276","MEAN_MOTION_DDOT":"0.0000000000000","MEAN_MOTION_DOT":"-0.00000917","EPOCH":"2021-09-21T15:00:42.621120","REF_FRAME":"TEME","ARG_OF_PERICENTER":"118.5664","INCLINATION":"53.0576","ELEMENT_SET_NO":"999","OBJECT_NAME":"STARLINK-2334","OBJECT_TYPE":"PAYLOAD","EPHEMERIS_TYPE":"0"},{"MEAN_ELEMENT_THEORY":"SGP4","SITE":"AFETR","PERIOD":"95.592","LAUNCH_DATE":"2021-03-11","ECCENTRICITY":"0.00010800","CENTER_NAME":"EARTH","FILE":"3122258","MEAN_MOTION":"15.06396783","GP_ID":"185189372","REF_FRAME":"TEME","EPOCH":"2021-09-21T16:57:26.796096","MEAN_MOTION_DDOT":"0.0000000000000","MEAN_MOTION_DOT":"0.00001209","ARG_OF_PERICENTER":"129.7316","ELEMENT_SET_NO":"999","INCLINATION":"53.0569","OBJECT_NAME":"STARLINK-2338","OBJECT_TYPE":"PAYLOAD","EPHEMERIS_TYPE":"0","DECAY_DATE":null,"TLE_LINE1":"1 47793U 21018G   21264.70656014  .00001209  00000-0  10004-3 0  9996","MEAN_ANOMALY":"230.3769","CLASSIFICATION_TYPE":"U","NORAD_CAT_ID":"47793","PERIAPSIS":"546.475","TIME_SYSTEM":"UTC","SEMIMAJOR_AXIS":"6925.358","OBJECT_ID":"2021-018G","TLE_LINE2":"2 47793  53.0569 348.8847 0001080 129.7316 230.3769 15.06396783 31192","BSTAR":"0.00010004000000","RA_OF_ASC_NODE":"348.8847","COUNTRY_CODE":"US","APOAPSIS":"547.971","RCS_SIZE":"LARGE","REV_AT_EPOCH":"3119"},{"ECCENTRICITY":"0.00007290","LAUNCH_DATE":"2021-03-11","CENTER_NAME":"EARTH","MEAN_ELEMENT_THEORY":"SGP4","SITE":"AFETR","PERIOD":"95.592","OBJECT_NAME":"STARLINK-2341","ELEMENT_SET_NO":"999","INCLINATION":"53.0584","EPHEMERIS_TYPE":"0","OBJECT_TYPE":"PAYLOAD","GP_ID":"185190120","MEAN_MOTION":"15.06400369","FILE":"3122258","ARG_OF_PERICENTER":"128.9906","MEAN_MOTION_DDOT":"0.0000000000000","MEAN_MOTION_DOT":"-0.00000733","EPOCH":"2021-09-21T17:02:45.850560","REF_FRAME":"TEME","NORAD_CAT_ID":"47794","CLASSIFICATION_TYPE":"U","MEAN_ANOMALY":"231.1148","SEMIMAJOR_AXIS":"6925.347","TIME_SYSTEM":"UTC","PERIAPSIS":"546.708","DECAY_DATE":null,"TLE_LINE1":"1 47794U 21018H   21264.71025290 -.00000733  00000-0 -30336-4 0  9998","RCS_SIZE":"LARGE","APOAPSIS":"547.717","REV_AT_EPOCH":"3120","TLE_LINE2":"2 47794  53.0584 348.8754 0000729 128.9906 231.1148 15.06400369 31200","BSTAR":"-0.00003033600000","OBJECT_ID":"2021-018H","COUNTRY_CODE":"US","RA_OF_ASC_NODE":"348.8754"},{"SITE":"AFETR","MEAN_ELEMENT_THEORY":"SGP4","PERIOD":"95.593","LAUNCH_DATE":"2021-03-11","ECCENTRICITY":"0.00010520","CENTER_NAME":"EARTH","FILE":"3122258","GP_ID":"185188868","MEAN_MOTION":"15.06389894","MEAN_MOTION_DOT":"-0.00000758","MEAN_MOTION_DDOT":"0.0000000000000","EPOCH":"2021-09-21T15:11:19.352832","REF_FRAME":"TEME","ARG_OF_PERICENTER":"129.6304","INCLINATION":"53.0572","ELEMENT_SET_NO":"999","OBJECT_NAME":"STARLINK-2347","OBJECT_TYPE":"PAYLOAD","EPHEMERIS_TYPE":"0","DECAY_DATE":null,"TLE_LINE1":"1 47795U 21018J   21264.63286288 -.00000758  00000-0 -32021-4 0  9996","MEAN_ANOMALY":"230.4778","NORAD_CAT_ID":"47795","CLASSIFICATION_TYPE":"U","TIME_SYSTEM":"UTC","SEMIMAJOR_AXIS":"6925.380","PERIAPSIS":"546.516","OBJECT_ID":"2021-018J","TLE_LINE2":"2 47795  53.0572 349.2170 0001052 129.6304 230.4778 15.06389894 31249","BSTAR":"-0.00003202100000","COUNTRY_CODE":"US","RA_OF_ASC_NODE":"349.2170","APOAPSIS":"547.973","RCS_SIZE":"LARGE","REV_AT_EPOCH":"3124"},{"ECCENTRICITY":"0.00009780","LAUNCH_DATE":"2021-03-11","CENTER_NAME":"EARTH","SITE":"AFETR","MEAN_ELEMENT_THEORY":"SGP4","PERIOD":"95.593","OBJECT_NAME":"STARLINK-2373","ELEMENT_SET_NO":"999","INCLINATION":"53.0581","EPHEMERIS_TYPE":"0","OBJECT_TYPE":"PAYLOAD","GP_ID":"185188621","MEAN_MOTION":"15.06393097","FILE":"3122258","ARG_OF_PERICENTER":"136.5972","MEAN_MOTION_DOT":"-0.00000773","MEAN_MOTION_DDOT":"0.0000000000000","REF_FRAME":"TEME","EPOCH":"2021-09-21T17:08:05.489952","NORAD_CAT_ID":"47796","CLASSIFICATION_TYPE":"U","MEAN_ANOMALY":"223.5094","SEMIMAJOR_AXIS":"6925.370","TIME_SYSTEM":"UTC","PERIAPSIS":"546.557","DECAY_DATE":null,"TLE_LINE1":"1 47796U 21018K   21264.71395243 -.00000773  00000-0 -33010-4 0  9994","RCS_SIZE":"LARGE","APOAPSIS":"547.912","REV_AT_EPOCH":"3120","TLE_LINE2":"2 47796  53.0581 348.8573 0000978 136.5972 223.5094 15.06393097 31206","BSTAR":"-0.00003301000000","OBJECT_ID":"2021-018K","COUNTRY_CODE":"US","RA_OF_ASC_NODE":"348.8573"}];
